NEXTSAT-1               
1 43811U 18099BF  26068.68342010  .00004546  00000+0  29857-3 0  9992
2 43811  97.4203 114.8574 0011320 323.9610  36.0854 15.08057555396886
STARLINK-4194           
1 53000U 22076Q   26068.35818677 -.00000611  00000+0 -20276-4 0  9992
2 53000  53.2168  95.6096 0001350 100.9151 259.1993 15.08836645202790
